[{"OBJECT_NAME":"STARLINK-6049","OBJECT_ID":"2023-078AF","EPOCH":"2026-03-09T22:18:23.025888","MEAN_MOTION":14.98326107,"ECCENTRICITY":0.00025054,"INCLINATION":70.0006,"RA_OF_ASC_NODE":343.9548,"ARG_OF_PERICENTER":263.0941,"MEAN_ANOMALY":96.9933,"EPHEMERIS_TYPE":0,"CLASSIFICATION_TYPE":"U","NORAD_CAT_ID":56796,"ELEMENT_SET_NO":999,"REV_AT_EPOCH":15271,"BSTAR":2.6098056e-5,"MEAN_MOTION_DOT":2.18e-6,"MEAN_MOTION_DDOT":0},{"OBJECT_NAME":"CENTAURI-7","OBJECT_ID":"2025-009DD","EPOCH":"2026-03-09T18:21:07.569216","MEAN_MOTION":14.97068612,"ECCENTRICITY":0.00019728,"INCLINATION":97.7123,"RA_OF_ASC_NODE":150.3372,"ARG_OF_PERICENTER":133.1699,"MEAN_ANOMALY":226.9688,"EPHEMERIS_TYPE":0,"CLASSIFICATION_TYPE":"U","NORAD_CAT_ID":62708,"ELEMENT_SET_NO":999,"REV_AT_EPOCH":6258,"BSTAR":0.00048082234,"MEAN_MOTION_DOT":5.487e-5,"MEAN_MOTION_DDOT":0}]
